[
  {
    "OBJECT_NAME": "STARLINK-30442",
    "OBJECT_ID": "23144E",
    "EPOCH": "2025-11-11T03:16:17.470848",
    "MEAN_MOTION": 15.0257532,
    "ECCENTRICITY": 0.0001129,
    "INCLINATION": 43.0027,
    "RA_OF_ASC_NODE": 211.9234,
    "ARG_OF_PERICENTER": 277.5358,
    "MEAN_ANOMALY": 82.5356,
    "EPHEMERIS_TYPE": 0,
    "CLASSIFICATION_TYPE": "U",
    "NORAD_CAT_ID": 57868,
    "ELEMENT_SET_NO": 999,
    "REV_AT_EPOCH": 11973,
    "BSTAR": 0.00046579,
    "MEAN_MOTION_DOT": 6.1e-05,
    "MEAN_MOTION_DDOT": 0.0,
    "TLE_LINE1": "1 57868U 23144E   25315.13631332  .00006100  00000+0  46579-3 0  9996",
    "TLE_LINE2": "2 57868  43.0027 211.9234 0001129 277.5358  82.5356 15.02575320119734",
    "COMMENT": "Grouped by shell and plane from TLE"
  },
  {
    "OBJECT_NAME": "STARLINK-30441",
    "OBJECT_ID": "23144F",
    "EPOCH": "2025-11-11T01:59:47.635008",
    "MEAN_MOTION": 15.02538318,
    "ECCENTRICITY": 0.0001149,
    "INCLINATION": 43.0039,
    "RA_OF_ASC_NODE": 212.3729,
    "ARG_OF_PERICENTER": 274.0979,
    "MEAN_ANOMALY": 85.9732,
    "EPHEMERIS_TYPE": 0,
    "CLASSIFICATION_TYPE": "U",
    "NORAD_CAT_ID": 57869,
    "ELEMENT_SET_NO": 999,
    "REV_AT_EPOCH": 11972,
    "BSTAR": 6.735500000000001e-05,
    "MEAN_MOTION_DOT": 7.06e-06,
    "MEAN_MOTION_DDOT": 0.0,
    "TLE_LINE1": "1 57869U 23144F   25315.08319022  .00000706  00000+0  67355-4 0  9992",
    "TLE_LINE2": "2 57869  43.0039 212.3729 0001149 274.0979  85.9732 15.02538318119725",
    "COMMENT": "Grouped by shell and plane from TLE"
  },
  {
    "OBJECT_NAME": "STARLINK-30460",
    "OBJECT_ID": "23144G",
    "EPOCH": "2025-11-11T01:35:49.813728",
    "MEAN_MOTION": 15.02534779,
    "ECCENTRICITY": 0.000119,
    "INCLINATION": 43.0041,
    "RA_OF_ASC_NODE": 212.3016,
    "ARG_OF_PERICENTER": 274.582,
    "MEAN_ANOMALY": 85.4886,
    "EPHEMERIS_TYPE": 0,
    "CLASSIFICATION_TYPE": "U",
    "NORAD_CAT_ID": 57870,
    "ELEMENT_SET_NO": 999,
    "REV_AT_EPOCH": 11977,
    "BSTAR": 0.00016493,
    "MEAN_MOTION_DOT": 2.025e-05,
    "MEAN_MOTION_DDOT": 0.0,
    "TLE_LINE1": "1 57870U 23144G   25315.06654877  .00002025  00000+0  16493-3 0  9994",
    "TLE_LINE2": "2 57870  43.0041 212.3016 0001190 274.5820  85.4886 15.02534779119772",
    "COMMENT": "Grouped by shell and plane from TLE"
  },
  {
    "OBJECT_NAME": "STARLINK-30444",
    "OBJECT_ID": "23144H",
    "EPOCH": "2025-11-11T03:01:58.298880",
    "MEAN_MOTION": 15.02539431,
    "ECCENTRICITY": 9.75e-05,
    "INCLINATION": 43.0025,
    "RA_OF_ASC_NODE": 211.888,
    "ARG_OF_PERICENTER": 268.4427,
    "MEAN_ANOMALY": 91.6303,
    "EPHEMERIS_TYPE": 0,
    "CLASSIFICATION_TYPE": "U",
    "NORAD_CAT_ID": 57871,
    "ELEMENT_SET_NO": 999,
    "REV_AT_EPOCH": 11950,
    "BSTAR": 8.556500000000001e-05,
    "MEAN_MOTION_DOT": 9.53e-06,
    "MEAN_MOTION_DDOT": 0.0,
    "TLE_LINE1": "1 57871U 23144H   25315.12636920  .00000953  00000+0  85565-4 0  9996",
    "TLE_LINE2": "2 57871  43.0025 211.8880 0000975 268.4427  91.6303 15.02539431119507",
    "COMMENT": "Grouped by shell and plane from TLE"
  },
  {
    "OBJECT_NAME": "STARLINK-30445",
    "OBJECT_ID": "23144K",
    "EPOCH": "2025-11-11T03:06:45.946944",
    "MEAN_MOTION": 15.02537987,
    "ECCENTRICITY": 0.0001328,
    "INCLINATION": 43.0049,
    "RA_OF_ASC_NODE": 211.9184,
    "ARG_OF_PERICENTER": 257.8573,
    "MEAN_ANOMALY": 102.2121,
    "EPHEMERIS_TYPE": 0,
    "CLASSIFICATION_TYPE": "U",
    "NORAD_CAT_ID": 57873,
    "ELEMENT_SET_NO": 999,
    "REV_AT_EPOCH": 11973,
    "BSTAR": 0.0,
    "MEAN_MOTION_DOT": -1.855e-05,
    "MEAN_MOTION_DDOT": 0.0,
    "TLE_LINE1": "1 57873U 23144K   25315.12969846 -.00001855  00000+0 -12226-3 0  9991",
    "TLE_LINE2": "2 57873  43.0049 211.9184 0001328 257.8573 102.2121 15.02537987119736",
    "COMMENT": "Grouped by shell and plane from TLE"
  },
  {
    "OBJECT_NAME": "STARLINK-30434",
    "OBJECT_ID": "23144M",
    "EPOCH": "2025-11-11T01:16:38.890560",
    "MEAN_MOTION": 15.02539956,
    "ECCENTRICITY": 0.0001012,
    "INCLINATION": 43.0031,
    "RA_OF_ASC_NODE": 212.2008,
    "ARG_OF_PERICENTER": 272.162,
    "MEAN_ANOMALY": 87.9106,
    "EPHEMERIS_TYPE": 0,
    "CLASSIFICATION_TYPE": "U",
    "NORAD_CAT_ID": 57875,
    "ELEMENT_SET_NO": 999,
    "REV_AT_EPOCH": 11977,
    "BSTAR": 0.00018819,
    "MEAN_MOTION_DOT": 2.34e-05,
    "MEAN_MOTION_DDOT": 0.0,
    "TLE_LINE1": "1 57875U 23144M   25315.05322790  .00002340  00000+0  18819-3 0  9998",
    "TLE_LINE2": "2 57875  43.0031 212.2008 0001012 272.1620  87.9106 15.02539956119775",
    "COMMENT": "Grouped by shell and plane from TLE"
  },
  {
    "OBJECT_NAME": "STARLINK-30429",
    "OBJECT_ID": "23144N",
    "EPOCH": "2025-11-11T02:47:35.087712",
    "MEAN_MOTION": 15.02539377,
    "ECCENTRICITY": 9.63e-05,
    "INCLINATION": 43.0025,
    "RA_OF_ASC_NODE": 211.8136,
    "ARG_OF_PERICENTER": 259.6867,
    "MEAN_ANOMALY": 100.3867,
    "EPHEMERIS_TYPE": 0,
    "CLASSIFICATION_TYPE": "U",
    "NORAD_CAT_ID": 57876,
    "ELEMENT_SET_NO": 999,
    "REV_AT_EPOCH": 11977,
    "BSTAR": 9.1536e-05,
    "MEAN_MOTION_DOT": 1.033e-05,
    "MEAN_MOTION_DDOT": 0.0,
    "TLE_LINE1": "1 57876U 23144N   25315.11637833  .00001033  00000+0  91536-4 0  9999",
    "TLE_LINE2": "2 57876  43.0025 211.8136 0000963 259.6867 100.3867 15.02539377119774",
    "COMMENT": "Grouped by shell and plane from TLE"
  },
  {
    "OBJECT_NAME": "STARLINK-30433",
    "OBJECT_ID": "23144Q",
    "EPOCH": "2025-11-11T01:07:03.131328",
    "MEAN_MOTION": 15.02542636,
    "ECCENTRICITY": 0.0001042,
    "INCLINATION": 43.0035,
    "RA_OF_ASC_NODE": 212.1499,
    "ARG_OF_PERICENTER": 266.7796,
    "MEAN_ANOMALY": 93.2927,
    "EPHEMERIS_TYPE": 0,
    "CLASSIFICATION_TYPE": "U",
    "NORAD_CAT_ID": 57878,
    "ELEMENT_SET_NO": 999,
    "REV_AT_EPOCH": 11976,
    "BSTAR": 7.3026e-05,
    "MEAN_MOTION_DOT": 7.83e-06,
    "MEAN_MOTION_DDOT": 0.0,
    "TLE_LINE1": "1 57878U 23144Q   25315.04656402  .00000783  00000+0  73026-4 0  9991",
    "TLE_LINE2": "2 57878  43.0035 212.1499 0001042 266.7796  93.2927 15.02542636119760",
    "COMMENT": "Grouped by shell and plane from TLE"
  },
  {
    "OBJECT_NAME": "STARLINK-30358",
    "OBJECT_ID": "23144R",
    "EPOCH": "2025-11-11T01:03:52.102656",
    "MEAN_MOTION": 15.02531504,
    "ECCENTRICITY": 0.0001092,
    "INCLINATION": 43.0056,
    "RA_OF_ASC_NODE": 212.1302,
    "ARG_OF_PERICENTER": 272.7456,
    "MEAN_ANOMALY": 87.3261,
    "EPHEMERIS_TYPE": 0,
    "CLASSIFICATION_TYPE": "U",
    "NORAD_CAT_ID": 57879,
    "ELEMENT_SET_NO": 999,
    "REV_AT_EPOCH": 11976,
    "BSTAR": 7.1219e-05,
    "MEAN_MOTION_DOT": 7.58e-06,
    "MEAN_MOTION_DDOT": 0.0,
    "TLE_LINE1": "1 57879U 23144R   25315.04435304  .00000758  00000+0  71219-4 0  9992",
    "TLE_LINE2": "2 57879  43.0056 212.1302 0001092 272.7456  87.3261 15.02531504119769",
    "COMMENT": "Grouped by shell and plane from TLE"
  },
  {
    "OBJECT_NAME": "STARLINK-30436",
    "OBJECT_ID": "23144S",
    "EPOCH": "2025-11-11T02:28:24.210336",
    "MEAN_MOTION": 15.02534331,
    "ECCENTRICITY": 0.0001253,
    "INCLINATION": 43.0035,
    "RA_OF_ASC_NODE": 211.7137,
    "ARG_OF_PERICENTER": 268.2767,
    "MEAN_ANOMALY": 91.7932,
    "EPHEMERIS_TYPE": 0,
    "CLASSIFICATION_TYPE": "U",
    "NORAD_CAT_ID": 57880,
    "ELEMENT_SET_NO": 999,
    "REV_AT_EPOCH": 11977,
    "BSTAR": 6.645799999999999e-05,
    "MEAN_MOTION_DOT": 6.94e-06,
    "MEAN_MOTION_DDOT": 0.0,
    "TLE_LINE1": "1 57880U 23144S   25315.10305799  .00000694  00000+0  66458-4 0  9993",
    "TLE_LINE2": "2 57880  43.0035 211.7137 0001253 268.2767  91.7932 15.02534331119779",
    "COMMENT": "Grouped by shell and plane from TLE"
  },
  {
    "OBJECT_NAME": "STARLINK-30339",
    "OBJECT_ID": "23144U",
    "EPOCH": "2025-11-11T02:23:33.781056",
    "MEAN_MOTION": 15.02562068,
    "ECCENTRICITY": 7.85e-05,
    "INCLINATION": 43.0021,
    "RA_OF_ASC_NODE": 211.6869,
    "ARG_OF_PERICENTER": 276.8736,
    "MEAN_ANOMALY": 83.2017,
    "EPHEMERIS_TYPE": 0,
    "CLASSIFICATION_TYPE": "U",
    "NORAD_CAT_ID": 57882,
    "ELEMENT_SET_NO": 999,
    "REV_AT_EPOCH": 11977,
    "BSTAR": 0.00035012,
    "MEAN_MOTION_DOT": 4.532e-05,
    "MEAN_MOTION_DDOT": 0.0,
    "TLE_LINE1": "1 57882U 23144U   25315.09969654  .00004532  00000+0  35012-3 0  9995",
    "TLE_LINE2": "2 57882  43.0021 211.6869 0000785 276.8736  83.2017 15.02562068119775",
    "COMMENT": "Grouped by shell and plane from TLE"
  },
  {
    "OBJECT_NAME": "STARLINK-30282",
    "OBJECT_ID": "23144V",
    "EPOCH": "2025-11-11T02:15:37.128672",
    "MEAN_MOTION": 15.0253447,
    "ECCENTRICITY": 0.0001288,
    "INCLINATION": 43.0038,
    "RA_OF_ASC_NODE": 211.6474,
    "ARG_OF_PERICENTER": 271.7341,
    "MEAN_ANOMALY": 88.3354,
    "EPHEMERIS_TYPE": 0,
    "CLASSIFICATION_TYPE": "U",
    "NORAD_CAT_ID": 57883,
    "ELEMENT_SET_NO": 999,
    "REV_AT_EPOCH": 11977,
    "BSTAR": 7.4733e-05,
    "MEAN_MOTION_DOT": 8.06e-06,
    "MEAN_MOTION_DDOT": 0.0,
    "TLE_LINE1": "1 57883U 23144V   25315.09417973  .00000806  00000+0  74733-4 0  9992",
    "TLE_LINE2": "2 57883  43.0038 211.6474 0001288 271.7341  88.3354 15.02534470119777",
    "COMMENT": "Grouped by shell and plane from TLE"
  },
  {
    "OBJECT_NAME": "STARLINK-30340",
    "OBJECT_ID": "23144W",
    "EPOCH": "2025-11-11T03:44:57.070176",
    "MEAN_MOTION": 15.02537662,
    "ECCENTRICITY": 0.0001006,
    "INCLINATION": 43.0027,
    "RA_OF_ASC_NODE": 211.2439,
    "ARG_OF_PERICENTER": 279.9206,
    "MEAN_ANOMALY": 80.1523,
    "EPHEMERIS_TYPE": 0,
    "CLASSIFICATION_TYPE": "U",
    "NORAD_CAT_ID": 57884,
    "ELEMENT_SET_NO": 999,
    "REV_AT_EPOCH": 11978,
    "BSTAR": 0.00011225,
    "MEAN_MOTION_DOT": 1.313e-05,
    "MEAN_MOTION_DDOT": 0.0,
    "TLE_LINE1": "1 57884U 23144W   25315.15621609  .00001313  00000+0  11225-3 0  9993",
    "TLE_LINE2": "2 57884  43.0027 211.2439 0001006 279.9206  80.1523 15.02537662119786",
    "COMMENT": "Grouped by shell and plane from TLE"
  }
]